{
    "links": {
        "self": "http://www.neowsapp.com/rest/v1/neo/3827571?api_key=iIulBulltgU6a56xZRHN4H3l9WmuAYTsLGpBGhQ2"
    },
    "id": "3827571",
    "neo_reference_id": "3827571",
    "name": "(2018 RR4)",
    "designation": "2018 RR4",
    "nasa_jpl_url": "http://ssd.jpl.nasa.gov/sbdb.cgi?sstr=3827571",
    "absolute_magnitude_h": 27.1,
    "estimated_diameter": {
        "kilometers": {
            "estimated_diameter_min": 0.0101054342,
            "estimated_diameter_max": 0.0225964377
        },
        "meters": {
            "estimated_diameter_min": 10.1054341542,
            "estimated_diameter_max": 22.5964377109
        },
        "miles": {
            "estimated_diameter_min": 0.0062792237,
            "estimated_diameter_max": 0.0140407711
        },
        "feet": {
            "estimated_diameter_min": 33.1543125905,
            "estimated_diameter_max": 74.1352966996
        }
    },
    "is_potentially_hazardous_asteroid": false,
    "close_approach_data": [
        {
            "close_approach_date": "2016-08-13",
            "close_approach_date_full": "2016-Aug-13 03:43",
            "epoch_date_close_approach": 1471059780000,
            "relative_velocity": {
                "kilometers_per_second": "4.0956468896",
                "kilometers_per_hour": "14744.3288026803",
                "miles_per_hour": "9161.552527421"
            },
            "miss_distance": {
                "astronomical": "1.2853832155",
                "lunar": "500.0140708295",
                "kilometers": "192290591.172550985",
                "miles": "119483832.815674193"
            },
            "orbiting_body": "Juptr"
        },
        {
            "close_approach_date": "2018-07-11",
            "close_approach_date_full": "2018-Jul-11 12:30",
            "epoch_date_close_approach": 1531312200000,
            "relative_velocity": {
                "kilometers_per_second": "11.1993131597",
                "kilometers_per_hour": "40317.5273748458",
                "miles_per_hour": "25051.7436068868"
            },
            "miss_distance": {
                "astronomical": "0.0890472908",
                "lunar": "34.6393961212",
                "kilometers": "13321285.032950596",
                "miles": "8277462.6884303848"
            },
            "orbiting_body": "Mars"
        },
        {
            "close_approach_date": "2018-09-12",
            "close_approach_date_full": "2018-Sep-12 12:59",
            "epoch_date_close_approach": 1536757140000,
            "relative_velocity": {
                "kilometers_per_second": "8.8718413135",
                "kilometers_per_hour": "31938.6287287113",
                "miles_per_hour": "19845.4218342373"
            },
            "miss_distance": {
                "astronomical": "0.0082761156",
                "lunar": "3.2194089684",
                "kilometers": "1238089.265633772",
                "miles": "769312.9961471736"
            },
            "orbiting_body": "Earth"
        },
        {
            "close_approach_date": "2029-03-10",
            "close_approach_date_full": "2029-Mar-10 21:14",
            "epoch_date_close_approach": 1867871640000,
            "relative_velocity": {
                "kilometers_per_second": "6.1691963267",
                "kilometers_per_hour": "22209.1067760264",
                "miles_per_hour": "13799.8752631371"
            },
            "miss_distance": {
                "astronomical": "1.9924780743",
                "lunar": "775.0739709027",
                "kilometers": "298070475.936981741",
                "miles": "185212405.3338843858"
            },
            "orbiting_body": "Juptr"
        }
    ],
    "orbital_data": {
        "orbit_id": "3",
        "orbit_determination_date": "2018-09-16 06:58:47",
        "first_observation_date": "2018-09-11",
        "last_observation_date": "2018-09-13",
        "data_arc_in_days": 2,
        "observations_used": 27,
        "orbit_uncertainty": "7",
        "minimum_orbit_intersection": ".0023601",
        "jupiter_tisserand_invariant": "3.090",
        "epoch_osculation": "2459000.5",
        "eccentricity": ".6212846850141256",
        "semi_major_axis": "2.631211881635507",
        "inclination": "3.178114802517283",
        "ascending_node_longitude": "351.3649820426937",
        "orbital_period": "1558.949902829843",
        "perihelion_distance": ".9964802365481662",
        "perihelion_argument": "14.80004479209331",
        "aphelion_distance": "4.265943526722848",
        "perihelion_time": "2458387.371122747459",
        "mean_anomaly": "141.5865868494215",
        "mean_motion": ".2309246752230585",
        "equinox": "J2000",
        "orbit_class": {
            "orbit_class_type": "APO",
            "orbit_class_description": "Near-Earth asteroid orbits which cross the Earth’s orbit similar to that of 1862 Apollo",
            "orbit_class_range": "a (semi-major axis) > 1.0 AU; q (perihelion) < 1.017 AU"
        }
    },
    "is_sentry_object": false
}